     2.11           N: GPS NAV DATA                         RINEX VERSION / TYPE
teqc  2019Feb25                         20221121 12:25:56UTCPGM / RUN BY / DATE
OSX ker:10.11.6|Core i5|gcc 4.3 -m64|OSX ker:10.10+|=+      COMMENT
    4.6566D-09  1.4901D-08 -5.9605D-08 -5.9605D-08          ION ALPHA
    7.7824D+04  4.9152D+04 -6.5536D+04 -3.2768D+05          ION BETA
    1.862645149231D-09 7.993605777301D-15   589824     1543 DELTA-UTC: A0,A1,T,W
                                                            END OF HEADER
27 09  8  5 23 59 44.0 7.178960368037D-05 3.296918293927D-12 0.000000000000D+00
    2.600000000000D+01 4.600000000000D+01 4.295536069176D-09-2.865577165763D+00
    2.145767211914D-06 2.130996156484D-02 9.294599294662D-07 5.153758979797D+03
    3.455840000000D+05 3.390014171600D-07 1.434155105631D+00 1.285225152969D-07
    9.749149712703D-01 3.640625000000D+02-1.563070858301D+00-7.936044853837D-09
    3.121558596874D-10 1.000000000000D+00 1.543000000000D+03 0.000000000000D+00
    2.000000000000D+00 0.000000000000D+00-4.190951585770D-09 2.600000000000D+01
    3.427380000000D+05 4.000000000000D+00
28 09  8  5 23 59 44.0-2.613337710500D-05-1.136868377216D-13 0.000000000000D+00
    1.000000000000D+01-1.230312500000D+02 4.252677141073D-09-1.963339566756D+00
   -6.312504410744D-06 1.499662129208D-02 6.668269634247D-06 5.153656497955D+03
    3.455840000000D+05 2.551823854446D-07 2.569984007041D+00-3.166496753693D-08
    9.675226969982D-01 2.468125000000D+02-2.021183880113D+00-7.804253649919D-09
   -6.643133856047D-11 1.000000000000D+00 1.543000000000D+03 0.000000000000D+00
    2.000000000000D+00 0.000000000000D+00-1.071020960808D-08 1.000000000000D+01
    3.433860000000D+05 4.000000000000D+00
20 09  8  5 23 59 44.0 7.548090070486D-05-9.094947017729D-13 0.000000000000D+00
    1.300000000000D+01-2.996875000000D+01 5.026995108810D-09-9.838124507318D-01
   -1.668930053711D-06 3.842732170597D-03 8.789822459221D-06 5.153794761658D+03
    3.455840000000D+05-2.607703208923D-08-6.283817483821D-01 6.146728992462D-08
    9.410200897896D-01 1.974687500000D+02 1.337485571117D+00-8.259986918753D-09
   -7.414594561911D-10 1.000000000000D+00 1.543000000000D+03 0.000000000000D+00
    2.000000000000D+00 0.000000000000D+00-6.519258022308D-09 1.300000000000D+01
    3.443580000000D+05 4.000000000000D+00
